NORAD_CAT_ID,OBJECT_NAME,OBJECT_TYPE,EPOCH,MEAN_MOTION,ECCENTRICITY,INCLINATION,RA_OF_ASC_NODE,ARG_OF_PERICENTER,MEAN_ANOMALY,BSTAR,MEAN_MOTION_DOT,MEAN_MOTION_DDOT,TLE_LINE0,TLE_LINE1,TLE_LINE2,SEMIMAJOR_AXIS,PERIOD,APOGEE,PERIGEE,DECAYED
52282.0,STARLINK-3783,PAYLOAD,2022-12-13 12:43:08,15.08836603,0.0002738,53.2189,6.0342,27.0266,333.0868,1.8847e-05,1.1e-07,0.0,0 STARLINK-3783,1 52282U 22041X   22347.52996073  .00000011  00000-0  18847-4 0  9991,2 52282  53.2189   6.0342 0002738  27.0266 333.0868 15.08836603 36030,6917.891,95.438,541.65,537.862,0.0
52282.0,STARLINK-3783,PAYLOAD,2022-12-13 19:04:40,15.08846896,0.0002753,53.2188,4.8465,25.7168,334.396,4.417600000000001e-05,4.15e-06,0.0,0 STARLINK-3783,1 52282U 22041X   22347.79491281  .00000415  00000-0  44176-4 0  9993,2 52282  53.2188   4.8465 0002753  25.7168 334.3960 15.08846896 36070,6917.859,95.437,541.629,537.82,0.0
52282.0,STARLINK-3783,PAYLOAD,2022-12-14 01:26:13,15.0884771,0.0002604,53.2183,3.6575,26.1532,333.9591,-5.8572e-06,-3.82e-06,0.0,0 STARLINK-3783,1 52282U 22041X   22348.05987299 -.00000382  00000-0 -58572-5 0  9993,2 52282  53.2183   3.6575 0002604  26.1532 333.9591 15.08847710 37330,6917.857,95.437,541.523,537.92,0.0
52282.0,STARLINK-3783,PAYLOAD,2022-12-14 10:58:32,15.08842737,0.0002831,53.2187,1.8729,25.5447,334.5685,-5.4147e-05,-1.15e-05,0.0,0 STARLINK-3783,1 52282U 22041X   22348.45731656 -.00001150  00000-0 -54147-4 0  9998,2 52282  53.2187   1.8729 0002831  25.5447 334.5685 15.08842737 36171,6917.871999999999,95.437,541.695,537.779,0.0
52282.0,STARLINK-3783,PAYLOAD,2022-12-15 07:38:33,15.08834671,0.000287,53.2193,358.0074,28.7748,331.3402,-2.9348e-05,-7.56e-06,0.0,0 STARLINK-3783,1 52282U 22041X   22349.31844194 -.00000756  00000-0 -29348-4 0  9992,2 52282  53.2193 358.0074 0002870  28.7748 331.3402 15.08834671 37520,6917.897,95.438,541.747,537.776,0.0
52282.0,STARLINK-3783,PAYLOAD,2022-12-15 12:24:43,15.08824366,0.0001626999999999,53.2194,357.1162,353.1311,6.9659,-0.0001281,-2.325e-05,0.0,0 STARLINK-3783,1 52282U 22041X   22349.51716552 -.00002325  00000-0 -12810-3 0  9999,2 52282  53.2194 357.1162 0001627 353.1311   6.9659 15.08824366 37551,6917.928000000001,95.439,540.919,538.668,0.0
52282.0,STARLINK-3783,PAYLOAD,2022-12-15 17:10:51,15.08838444,0.0002849,53.2189,356.2222,26.5841,333.5297,1.2247e-05,-9.4e-07,0.0,0 STARLINK-3783,1 52282U 22041X   22349.71587848 -.00000094  00000-0  12247-4 0  9990,2 52282  53.2189 356.2222 0002849  26.5841 333.5297 15.08838444 36365,6917.885,95.438,541.721,537.779,0.0
52282.0,STARLINK-3783,PAYLOAD,2022-12-15 23:32:23,15.0885001,0.0002787,53.219,355.0326,25.4909,334.622,4.2308e-05,3.85e-06,0.0,0 STARLINK-3783,1 52282U 22041X   22349.98082829  .00000385  00000-0  42308-4 0  9991,2 52282  53.2190 355.0326 0002787  25.4909 334.6220 15.08850010 37624,6917.85,95.437,541.643,537.7869999999998,0.0
52282.0,STARLINK-3783,PAYLOAD,2022-12-16 04:18:34,15.08829503,0.0002705,53.2191,354.1413,24.8744,335.2378,-8.6645e-05,-1.667e-05,0.0,0 STARLINK-3783,1 52282U 22041X   22350.17956497 -.00001667  00000-0 -86645-4 0  9993,2 52282  53.2191 354.1413 0002705  24.8744 335.2378 15.08829503 37659,6917.9119999999975,95.438,541.649,537.906,0.0
52282.0,STARLINK-3783,PAYLOAD,2022-12-16 10:40:06,15.08832317,0.0002801,53.2189,352.9513,23.937,336.1752,-7.4355e-05,-1.472e-05,0.0,0 STARLINK-3783,1 52282U 22041X   22350.44452278 -.00001472  00000-0 -74355-4 0  9990,2 52282  53.2189 352.9513 0002801  23.9370 336.1752 15.08832317 36477,6917.904,95.438,541.707,537.831,0.0
52282.0,STARLINK-3783,PAYLOAD,2022-12-16 17:01:38,15.08836385,0.0002752,53.2193,351.7621,25.4697,334.64300000000014,2.6208e-05,1.29e-06,0.0,0 STARLINK-3783,1 52282U 22041X   22350.70947858  .00000129  00000-0  26208-4 0  9992,2 52282  53.2193 351.7621 0002752  25.4697 334.6430 15.08836385 37738,6917.891,95.438,541.66,537.8530000000002,0.0
52282.0,STARLINK-3783,PAYLOAD,2022-12-17 07:20:07,15.08836691,0.0002798,53.2191,349.0857,25.8326,334.2805,3.8526e-05,3.25e-06,0.0,0 STARLINK-3783,1 52282U 22041X   22351.30563869  .00000325  00000-0  38526-4 0  9999,2 52282  53.2191 349.0857 0002798  25.8326 334.2805 15.08836691 36607,6917.891,95.438,541.691,537.82,0.0
52282.0,STARLINK-3783,PAYLOAD,2022-12-17 16:52:26,15.08838213,0.000283,53.2189,347.3018,24.0874,336.025,-1.8691e-05,-5.86e-06,0.0,0 STARLINK-3783,1 52282U 22041X   22351.70308078 -.00000586  00000-0 -18691-4 0  9994,2 52282  53.2189 347.3018 0002830  24.0874 336.0250 15.08838213 36662,6917.886,95.438,541.7090000000002,537.793,0.0
52282.0,STARLINK-3783,PAYLOAD,2022-12-18 00:49:21,15.08840033,0.0003108,53.2192,345.8149,27.1835,332.9319,-6.222600000000001e-05,-1.279e-05,0.0,0 STARLINK-3783,1 52282U 22041X   22352.03428197 -.00001279  00000-0 -62226-4 0  9999,2 52282  53.2192 345.8149 0003108  27.1835 332.9319 15.08840033 37939,6917.88,95.438,541.895,537.595,0.0
52282.0,STARLINK-3783,PAYLOAD,2022-12-18 07:10:54,15.08825726,0.0002688,53.2197,344.6258,23.392,336.7194,2.4125e-05,9.5e-07,0.0,0 STARLINK-3783,1 52282U 22041X   22352.29924719  .00000095  00000-0  24125-4 0  9997,2 52282  53.2197 344.6258 0002688  23.3920 336.7194 15.08825726 37976,6917.924,95.438,541.649,537.929,0.0
52282.0,STARLINK-3783,PAYLOAD,2022-12-18 16:43:13,15.0883262,0.0002797,53.2194,342.8402,22.7921,337.3195,-3.0763000000000003e-05,-7.78e-06,0.0,0 STARLINK-3783,1 52282U 22041X   22352.69668686 -.00000778  00000-0 -30763-4 0  9994,2 52282  53.2194 342.8402 0002797  22.7921 337.3195 15.08832620 36810,6917.903,95.438,541.703,537.8330000000002,0.0
52282.0,STARLINK-3783,PAYLOAD,2022-12-19 00:40:09,15.08837291,0.0002707,53.2188,341.3543,19.774,340.3357,3.1347e-06,-2.39e-06,0.0,0 STARLINK-3783,1 52282U 22041X   22353.02788357 -.00000239  00000-0  31347-5 0  9991,2 52282  53.2188 341.3543 0002707  19.7740 340.3357 15.08837291 38083,6917.889,95.438,541.626,537.881,0.0
52282.0,STARLINK-3783,PAYLOAD,2022-12-19 07:01:41,15.08833096,0.0002758,53.2196,340.1642,22.5151,337.5962,1.7371e-05,-1.2e-07,0.0,0 STARLINK-3783,1 52282U 22041X   22353.29284633 -.00000012  00000-0  17371-4 0  9997,2 52282  53.2196 340.1642 0002758  22.5151 337.5962 15.08833096 36901,6917.901,95.438,541.674,537.859,0.0
52282.0,STARLINK-3783,PAYLOAD,2022-12-19 16:34:00,15.08842723,0.000285,53.2201,338.3815,24.1524,335.9601,6.8904e-05,8.08e-06,0.0,0 STARLINK-3783,1 52282U 22041X   22353.69027935  .00000808  00000-0  68904-4 0  9991,2 52282  53.2201 338.3815 0002850  24.1524 335.9601 15.08842723 38185,6917.871999999999,95.437,541.7090000000002,537.765,0.0
52282.0,STARLINK-3783,PAYLOAD,2022-12-20 05:17:04,15.08852177,0.000283,53.2199,336.0021,23.0024,337.1094,0.00014952,2.093e-05,0.0,0 STARLINK-3783,1 52282U 22041X   22354.22018776  .00002093  00000-0  14952-3 0  9995,2 52282  53.2199 336.0021 0002830  23.0024 337.1094 15.08852177 38269,6917.843000000003,95.437,541.6659999999998,537.75,0.0
52282.0,STARLINK-3783,PAYLOAD,2022-12-20 08:27:50,15.08852463,0.0002845,53.2184,335.4086,20.5109,339.5997,0.00011165,1.489e-05,0.0,0 STARLINK-3783,1 52282U 22041X   22354.35266777  .00001489  00000-0  11165-3 0  9996,2 52282  53.2184 335.4086 0002845  20.5109 339.5997 15.08852463 37062,6917.842,95.437,541.675,537.739,0.0
52282.0,STARLINK-3783,PAYLOAD,2022-12-20 16:24:46,15.08843697,0.0002882,53.2189,333.9211,21.614,338.4973,0.00016956,2.411e-05,0.0,0 STARLINK-3783,1 52282U 22041X   22354.68386970  .00002411  00000-0  16956-3 0  9999,2 52282  53.2189 333.9211 0002882  21.6140 338.4973 15.08843697 38330,6917.869000000002,95.437,541.7280000000002,537.74,0.0
52282.0,STARLINK-3783,PAYLOAD,2022-12-21 08:18:39,15.08829707,0.0002709,53.2192,330.9471,21.3886,338.7219,-5.437e-05,-1.154e-05,0.0,0 STARLINK-3783,1 52282U 22041X   22355.34628647 -.00001154  00000-0 -54370-4 0  9991,2 52282  53.2192 330.9471 0002709  21.3886 338.7219 15.08829707 38434,6917.9119999999975,95.438,541.651,537.903,0.0
52282.0,STARLINK-3783,PAYLOAD,2022-12-22 08:09:26,15.08835307,0.0002674,53.2197,326.485,26.8101,333.3029,-0.00010231,-1.916e-05,0.0,0 STARLINK-3783,1 52282U 22041X   22356.33988885 -.00001916  00000-0 -10231-3 0  9997,2 52282  53.2197 326.4850 0002674  26.8101 333.3029 15.08835307 37365,6917.895,95.438,541.61,537.91,0.0
52282.0,STARLINK-3783,PAYLOAD,2022-12-23 08:00:14,15.08822389,0.0003058999999999,53.2187,322.0274,21.8129,338.2992,5.4575e-05,5.8e-06,0.0,0 STARLINK-3783,1 52282U 22041X   22357.33349584  .00000580  00000-0  54575-4 0  9999,2 52282  53.2187 322.0274 0003059  21.8129 338.2992 15.08822389 37515,6917.934,95.439,541.915,537.683,0.0
52282.0,STARLINK-3783,PAYLOAD,2022-12-23 14:21:46,15.0882326,0.0002665,53.2188,320.8374,25.3123,334.7999,3.6624e-05,2.94e-06,0.0,0 STARLINK-3783,1 52282U 22041X   22357.59845793  .00000294  00000-0  36624-4 0  9997,2 52282  53.2188 320.8374 0002665  25.3123 334.7999 15.08823260 37559,6917.932,95.439,541.64,537.953,0.0
52282.0,STARLINK-3783,PAYLOAD,2022-12-23 22:18:42,15.08836103,0.0002781,53.2188,319.3502,24.0339,336.0783,3.6482e-05,2.92e-06,0.0,0 STARLINK-3783,1 52282U 22041X   22357.92965379  .00000292  00000-0  36482-4 0  9997,2 52282  53.2188 319.3502 0002781  24.0339 336.0783 15.08836103 38826,6917.892,95.438,541.681,537.8330000000002,0.0
52282.0,STARLINK-3783,PAYLOAD,2022-12-24 06:15:37,15.08845717,0.0002842,53.2191,317.8636,26.7187,333.3951,0.00011342,1.517e-05,0.0,0 STARLINK-3783,1 52282U 22041X   22358.26084519  .00001517  00000-0  11342-3 0  9991,2 52282  53.2191 317.8636 0002842  26.7187 333.3951 15.08845717 38872,6917.863,95.437,541.694,537.762,0.0
52282.0,STARLINK-3783,PAYLOAD,2022-12-24 07:51:00,15.08846263,0.0002845,53.219,317.5661,26.9141,333.1998,0.00011825,1.594e-05,0.0,0 STARLINK-3783,1 52282U 22041X   22358.32708448  .00001594  00000-0  11825-3 0  9993,2 52282  53.2190 317.5661 0002845  26.9141 333.1998 15.08846263 37663,6917.861,95.437,541.694,537.758,0.0
